COSMOS 2251 DEB         
1 34120U 93036KR  17345.80381075  .00000102  00000-0  80087-4 0  9993
2 34120  73.9934 223.6984 0187673 327.6676  99.2597 13.96134876451829
